#aV2024  9 21  0  0  0.00000000     288 DD+AD WGS84 FIT  NGA
## 2332 518400.00000000   300.00000000 60574 0.0000000000000
+   31     2  3  4  5  6  7  8  9 10 11 12 13 14 15 16 17 18
+         19 20 21 22 23 24 25 26 27 28 29 30 31 32  0  0  0
+          0  0  0  0  0  0  0  0  0  0  0  0  0  0  0  0  0
+          0  0  0  0  0  0  0  0  0  0  0  0  0  0  0  0  0
+          0  0  0  0  0  0  0  0  0  0  0  0  0  0  0  0  0
++         2  2  2  2  2  2  2  2  2  2  2  2  2  2  2  2  2
++         2  2  2  2  2  2  2  2  2  2  2  2  2  2  0  0  0
++         0  0  0  0  0  0  0  0  0  0  0  0  0  0  0  0  0
++         0  0  0  0  0  0  0  0  0  0  0  0  0  0  0  0  0
++         0  0  0  0  0  0  0  0  0  0  0  0  0  0  0  0  0
%c cc cc ccc ccc cccc cccc cccc cccc ccccc ccccc ccccc ccccc
%c cc cc ccc ccc cccc cccc cccc cccc ccccc ccccc ccccc ccccc
%f  0.0000000  0.000000000  0.00000000000  0.000000000000000
%f  0.0000000  0.000000000  0.00000000000  0.000000000000000
%i    0    0    0    0      0      0      0      0         0
%i    0    0    0    0      0      0      0      0         0
/*      NGA, ST. LOUIS,MO.                                  
/*   EPHEMERIS COMPUTED FROM 2 DAYS OF DATA                 
/*   EPOCHA v9 SMOOTHER                                     
/*   G2296 IERS2010 SATIGS SATAPC                           
*  2024  9 21  5 40  0.00000000
P  2  14102.214941  -8064.924493  21424.234724   -353.636737                    
V  2   3094.891935  25987.647913   8248.133462      0.080206                    
P  3  23117.500985 -12933.180291    571.418060    544.969655                    
V  3    252.722977   2294.209589  32366.741533      0.130664                    
P  4  18175.267337  -4182.623315 -18952.676149    447.586512                    
V  4  19782.356182  13701.381496  15793.771606      0.070535                    
P  5 -21715.088629   1592.449942 -15441.059702   -187.284136                    
V  5  15214.501818 -11865.181819 -22826.466993     -0.012375                    
P  6  -5375.064260 -24467.537880  -8596.905662     16.330962                    
V  6   1960.638848 -10987.735500  29915.996147     -0.263459                    
P  7   6688.998478 -23399.121047  -9539.491510    -35.443993                    
V  7   3365.086664  13018.271202 -28487.565513      0.042698                    
P  8  24301.892444   4538.011272  10157.969366    359.565305                    
V  8  10323.454640   8177.880627 -27605.440832      0.126912                    
P  9   8313.356785 -12876.460567 -21784.885529    365.448489                    
V  9  24128.767436  13082.469248   1422.195210      0.161510                    
P 10    949.599425  15870.352359  21424.540454   -132.174492                    
V 10 -23423.754397  12851.210138  -8892.442985     -0.125361                    
P 11 -12710.089410 -13249.575309 -19186.361397   -736.832678                    
V 11   2244.083529 -24317.682056  15213.953824     -0.039708                    
P 12 -24525.503048   9356.995656   3600.949582   -539.592723                    
V 12   3154.904038  -4719.751388  31364.168001     -0.027737                    
P 13 -22477.169539 -13594.083654   4489.590857    677.591791                    
V 13  -3314.009381  -5418.633738 -31171.051601      0.020002                    
P 14   3234.870390 -17825.050910  19393.694318    500.305032                    
V 14  22309.719636 -10607.894338 -13726.934787      0.085224                    
P 15 -24481.046052  -1500.430812   9875.916731    206.718111                    
V 15 -11288.991509  -7686.783542 -27536.214459      0.044046                    
P 16  19794.535522   4330.172808 -17736.964511   -175.402358                    
V 16 -19036.947650  10474.507093 -18615.066883      0.101481                    
P 17  -7539.692022 -19085.517515  17182.171365    620.451884                    
V 17  18532.683711  10157.572057  20075.918591     -0.116552                    
P 18  -6677.427645  23805.905480  -9371.845538   -654.500847                    
V 18  -2168.359132 -12013.896704 -29120.035344     -0.020296                    
P 19 -15387.544878 -19468.144983   9887.442480    540.768242                    
V 19  11470.018663   5683.016832  28183.651377      0.048693                    
P 20 -14736.893584  -6846.763269 -20912.466264    370.426904                    
V 20  19780.057839 -18048.822652  -8150.980829     -0.003713                    
P 21  15391.913331   -696.415305  22047.343837    101.340010                    
V 21   3047.505711  26858.692924   -254.181322     -0.007457                    
P 22  -4606.399475 -14823.712757  21978.176289    -63.896368                    
V 22  24391.066864 -11387.746144  -2322.740812     -0.036618                    
P 23 -12284.699759  18753.655462  14092.320342    324.800895                    
V 23 -16159.319884   7905.820576 -24870.945406      0.083650                    
P 24 -14798.103148   5918.568395  20754.878534   -486.474052                    
V 24  -3710.406048 -27308.967415   5441.094226      0.004780                    
P 25 -18610.131660  17441.623911  -7247.734627    499.628418                    
V 25  -9178.518559   1922.228832  29845.430996      0.000088                    
P 26  10146.737276  12342.783602 -21388.047022     74.133224                    
V 26 -22007.646722  15457.460757  -1152.079015     -0.086818                    
P 27  23413.624045  13022.093911     78.899409    -33.896398                    
V 27   -818.872182   2386.289181 -31462.134822     -0.000863                    
P 28   5303.843149  25262.478923  -6263.987342   -418.778190                    
V 28  -2376.264813   8030.468673  30438.346933     -0.136897                    
P 29 -11665.032181  10078.007589 -21684.785012   -576.484006                    
V 29 -22516.980592 -15598.546289   4749.574199      0.024879                    
P 30   -266.117828 -26411.446992    134.733462   -317.332442                    
V 30   3840.244390    -19.569704 -31366.687234      0.072077                    
P 31  11514.448819  17187.868496 -16670.753821   -224.435334                    
V 31  -2452.476132  20862.266996  20472.661002      0.004975                    
P 32  10133.786766  18645.776499  16312.424727   -595.099323                    
V 32 -18480.155691  -8393.960989  21158.544853      0.037918                    
EOF
